{"spkid": "20277570", "covariance": {"labels": ["e", "q", "tp", "node", "peri", "i"], "elements": [{"title": "eccentricity", "value": ".6170562974849347", "units": null, "sigma": 5.49914698008186e-08, "name": "e", "label": "e"}, {"label": "q", "units": "au", "title": "perihelion distance", "value": ".5255648284126869", "sigma": 7.58393533312276e-08, "name": "q"}, {"label": "tp", "sigma": 1.29046473753736e-05, "name": "tp", "title": "time of perihelion passage", "value": "2457213.544903481330", "units": "TDB"}, {"label": "node", "sigma": 6.11935120288056e-05, "name": "om", "title": "longitude of the ascending node", "value": "289.1025755598226", "units": "deg"}, {"units": "deg", "title": "argument of perihelion", "value": "92.21699142627543", "sigma": 6.05589929426172e-05, "name": "w", "label": "peri"}, {"label": "i", "name": "i", "sigma": 6.41410135554552e-06, "units": "deg", "value": "4.111374698558895", "title": "inclination"}], "data": [["3.024061750854349E-15", "-4.169808857299036E-15", "3.982659800168589E-13", "4.346073358077262E-13", "-5.487866653137027E-13", "8.970134920636797E-15"], ["-4.169808857299036E-15", "5.751607513698788E-15", "-5.586353268943121E-13", "-6.177474715542292E-13", "7.711428022626206E-13", "-1.216407973707953E-14"], ["3.982659800168589E-13", "-5.586353268943121E-13", "1.665299238827357E-10", "2.125317732411058E-10", "-1.761809262807243E-10", "-8.965092499550347E-13"], ["4.346073358077262E-13", "-6.177474715542292E-13", "2.125317732411058E-10", "3.744645914419581E-9", "-3.685951349096311E-9", "2.189242273436635E-10"], ["-5.487866653137027E-13", "7.711428022626206E-13", "-1.761809262807243E-10", "-3.685951349096311E-9", "3.667391626223963E-9", "-2.197116922855587E-10"], ["8.970134920636797E-15", "-1.216407973707953E-14", "-8.965092499550347E-13", "2.189242273436635E-10", "-2.197116922855587E-10", "4.114069619921083E-11"]], "epoch": "2457366.5"}, "elements": [{"title": "eccentricity", "value": ".6169509030340781", "units": null, "name": "e", "sigma": "5.4877E-8", "label": "e"}, {"name": "a", "sigma": "3.8217E-9", "title": "semi-major axis", "value": "1.372318005201524", "units": "au", "label": "a"}, {"sigma": "7.5941E-8", "name": "q", "value": ".5256651726425192", "title": "perihelion distance", "units": "au", "label": "q"}, {"label": "i", "value": "4.110899784793585", "title": "inclination; angle with respect to x-y ecliptic plane", "units": "deg", "name": "i", "sigma": "6.4086E-6"}, {"units": "deg", "title": "longitude of the ascending node", "value": "288.903461878074", "name": "om", "sigma": "6.1228E-5", "label": "node"}, {"value": "92.46098115751253", "title": "argument of perihelion", "units": "deg", "name": "w", "sigma": "6.0586E-5", "label": "peri"}, {"name": "ma", "sigma": "6.9076E-6", "units": "deg", "title": "mean anomaly", "value": "284.5153069777452", "label": "M"}, {"title": "time of perihelion passage", "value": "2461323.622368522876", "units": "TDB", "name": "tp", "sigma": "1.157E-5", "label": "tp"}, {"label": "period", "units": "d", "value": "587.1925935390329", "title": "sidereal orbital period", "sigma": "2.4528E-6", "name": "per"}, {"name": "n", "sigma": "2.561E-9", "value": ".6130867520488734", "title": "mean motion", "units": "deg/d", "label": "n"}, {"label": "Q", "name": "ad", "sigma": "6.1794E-9", "units": "au", "title": "aphelion distance", "value": "2.218970837760529"}], "epoch": "2461200.5"}